CELTEE 1                
1 41850U 16067C   18079.78215662  .00000822  00000-0  77132-4 0  9996
2 41850  97.9257 166.8315 0010426  99.0151 261.2250 14.96762710 73873
OPTICUBE 04             
1 41851U 16067D   18079.47180871  .00000006  00000-0  58656-5 0  9991
2 41851  97.9258 166.4554 0010466  98.7449 261.4958 14.96637791 73828
AEROCUBE 8D             
1 41852U 16067E   18079.29697226  .00000280  00000-0  30013-4 0  9999
2 41852  97.9262 166.1326 0010960 100.8790 259.3665 14.96431948 73783
AEROCUBE 8C             
1 41853U 16067F   18079.77708979  .00000722  00000-0  68970-4 0  9995
2 41853  97.9264 166.5876 0011581 100.7524 259.5001 14.96397171 73857
PROMETHEUS 2-1          
1 41854U 16067G   18079.78884590  .00001164  00000-0  10775-3 0  9991
2 41854  97.9275 166.5894 0012091 100.0447 260.2139 14.96473521 73859
PROMETHEUS 2-3          
1 41855U 16067H   18079.79132571  .00001117  00000-0  10359-3 0  9994
2 41855  97.9278 166.5944 0012267 100.2220 260.0385 14.96471708 73851
ITF-2                   
1 41932U 98067KU  18079.39739376  .00035910  00000-0  28490-3 0  9995
2 41932  51.6367  76.5522 0002315 206.4725 153.6155 15.70914493 66789
WASEDA-SAT3             
1 41933U 98067KV  18079.39895486  .00053084  00000-0  36004-3 0  9993
2 41933  51.6338  72.7106 0001666 199.6534 160.4401 15.74433810 66832
AOBA-VELOX 3            
1 41935U 98067KX  18079.45764283  .00045667  00000-0  32858-3 0  9993
2 41935  51.6352  73.9174 0001558 200.8119 159.2816 15.73120856 66920
INS-1B                  
1 41954U 17008G   18079.61609591  .00001977  00000-0  87702-4 0  9993
2 41954  97.4557 144.2935 0008079 310.3302  49.7228 15.22744766 60525
BGUSAT                  
1 41999U 17008BD  18079.61111980  .00003155  00000-0  13248-3 0  9995
2 41999  97.4596 145.0922 0007418 332.2391  27.8449 15.24175793 59934
DIDO-2                  
1 42000U 17008BE  18079.57056976  .00001420  00000-0  63406-4 0  9992
2 42000  97.4580 144.6293 0007804 333.0781  27.0049 15.23000409 59914
PEASSS                  
1 42015U 17008BV  18079.52936723  .00001886  00000-0  81372-4 0  9998
2 42015  97.4570 144.9430 0005888 345.6437  14.4631 15.23768620 60412
AL-FARABI 1             
1 42016U 17008BW  18079.54428376  .00002343  00000-0  99321-4 0  9993
2 42016  97.4577 145.0952 0005744 346.1081  13.9997 15.24121645 60547
NAYIF-1 (EO-88)         
1 42017U 17008BX  18079.53987552  .00002326  00000-0  98594-4 0  9991
2 42017  97.4575 145.0965 0005745 346.5276  13.5807 15.24143463 60561
HAVELSAT                
1 42700U 98067LH  18079.48158222  .00026635  00000-0  25437-3 0  9996
2 42700  51.6363  86.8581 0003225 295.4258  64.6403 15.66539338 48095
SGSAT                   
1 42703U 98067LL  18079.42884811  .00155971  00000-0  67059-3 0  9995
2 42703  51.6321  75.0940 0002862  83.3161 276.8168 15.84052200 48154
CXBN-2                  
1 42704U 98067LM  18079.41681552  .00030771  00000-0  29730-3 0  9996
2 42704  51.6368  87.9349 0000784 141.9922 218.1129 15.66170622 47994
ICECUBE                 
1 42705U 98067LN  18079.23426363  .00048759  00000-0  38984-3 0  9990
2 42705  51.6408  85.2670 0000887 149.9687 210.1362 15.70589288 48076
PHOENIX                 
1 42706U 98067LP  18079.48454621  .00022448  00000-0  22432-3 0  9994
2 42706  51.6361  87.6320 0000421  77.8911 282.2132 15.65514786 47996
X-CUBESAT               
1 42707U 98067LQ  18079.54862489  .00030243  00000-0  28518-3 0  9990
2 42707  51.6337  86.5188 0000621  74.0089 286.0976 15.66785850 48001
QBEE50-LTU-OC           
1 42708U 98067LR  18079.39243556  .00030253  00000-0  29116-3 0  9998
2 42708  51.6362  87.7498 0000522  75.1959 284.9095 15.66276844 47933
ALTAIR PATHFINDER       
1 42711U 98067LS  18079.58873292  .00015740  00000-0  18240-3 0  9999
2 42711  51.6362  91.3252 0002879 196.7788 163.3111 15.61997185 47610
SHARC                   
1 42712U 98067LT  18079.48462311  .00012728  00000-0  15521-3 0  9997
2 42712  51.6380  92.9181 0001307 196.6771 163.4180 15.60873667 47822
ZA-AEROSAT              
1 42713U 98067LU  18079.50766741  .00025186  00000-0  26211-3 0  9995
2 42713  51.6352  89.2781 0001223 158.1451 201.9596 15.64412600 47630
LINK                    
1 42714U 98067LV  18079.45047914  .00051204  00000-0  40603-3 0  9995
2 42714  51.6318  84.3290 0001310 113.7102 246.4033 15.70765866 47802
CSUNSAT 1               
1 42715U 98067LW  18079.42449590  .00025806  00000-0  26502-3 0  9990
2 42715  51.6366  89.4839 0002666 180.9841 179.1149 15.64732935 47626
SPACECUBE               
1 42717U 98067LY  18079.41591171  .00030650  00000-0  29572-3 0  9997
2 42717  51.6348  87.9051 0002034 306.3717  53.7090 15.66206482 47012
HOOPOE                  
1 42718U 98067LZ  18079.49872396  .00036209  00000-0  32847-3 0  9992
2 42718  51.6356  86.2116 0001786 312.4502  47.6343 15.67651168 47041
CHALLENGER              
1 42721U 98067MA  18079.53365182  .00065899  00000-0  46416-3 0  9995
2 42721  51.6341  81.8829 0001966 284.6264  75.4516 15.73465616 46808
NJUST-1                 
1 42722U 98067MB  18079.58468302  .00020298  00000-0  21846-3 0  9993
2 42722  51.6362  89.8013 0004486 264.8978  95.1505 15.63694530 46701
UNSW-ECO                
1 42723U 98067MC  18079.39903071  .00038611  00000-0  34596-3 0  9994
2 42723  51.6373  87.0631 0003202 270.1370  89.9259 15.67921640 46707
LILACSAT-1              
1 42725U 98067ME  18079.54859254  .00026549  00000-0  26728-3 0  9991
2 42725  51.6362  88.8088 0003310 270.9489  89.1127 15.65217419 46617
NSIGHT-1                
1 42726U 98067MF  18079.44660051  .00011071  00000-0  14025-3 0  9997
2 42726  51.6381  94.1593 0004632 265.9138  94.1326 15.60022251 46545
SNUSAT-1                
1 42727U 98067MG  18079.55467203  .00025497  00000-0  25770-3 0  9990
2 42727  51.6346  88.8148 0004726 218.2102 141.8559 15.65137730 46585
I-INSPIRE II            
1 42731U 98067ML  18079.42154207  .00042981  00000-0  37580-3 0  9997
2 42731  51.6352  86.4167 0003686 194.3494 165.7399 15.68470467 46491
POLYITAN-2-SAU          
1 42732U 98067MM  18079.54382010  .00030171  00000-0  28601-3 0  9998
2 42732  51.6355  87.2499 0004152 196.1440 163.9424 15.66649438 46495
SNUSAT-1B               
1 42733U 98067MN  18079.49676033  .00027097  00000-0  26790-3 0  9994
2 42733  51.6357  88.4451 0004319 201.7191 158.3622 15.65657948 46470
EXALTA-1                
1 42734U 98067MP  18079.55298909  .00040577  00000-0  35397-3 0  9995
2 42734  51.6336  85.7870 0004240 233.8906 126.1698 15.68550716 46469
BEEAGLESAT              
1 42736U 98067MR  18079.56122870  .00025003  00000-0  25544-3 0  9991
2 42736  51.6352  88.8741 0004552 260.0240 100.0241 15.64878140 46532
ATLANTIS                
1 42737U 98067MS  18079.42912887  .00777623  30351-3  12515-2 0  9992
2 42737  51.6195  69.6660 0003369 108.9969 251.1407 16.02946790 46664
UCLSAT                  
1 42765U 17036A   18079.10870967  .00001885  00000-0  86485-4 0  9991
2 42765  97.4118 140.3551 0012763  35.9365 324.2727 15.21601521 41753
LITUANICASAT-2          
1 42768U 17036D   18079.19946497  .00003091  00000-0  14218-3 0  9990
2 42768  97.4127 140.1016 0016332  24.2517 335.9484 15.20978093 41036
AALTO-1                 
1 42775U 17036L   18079.19942738  .00001314  00000-0  63005-4 0  9997
2 42775  97.4114 140.0817 0014809  22.5666 337.6218 15.20578552 40973
URSA MAIOR              
1 42776U 17036M   18079.38763266  .00001377  00000-0  65742-4 0  9995
2 42776  97.4120 140.3008 0014635  22.2710 337.9157 15.20646780 41009
COMPASS 2               
1 42777U 17036N   18079.23104334  .00002627  00000-0  11992-3 0  9991
2 42777  97.4132 140.3988 0013604  27.1299 333.0645 15.21411215 40980
DIAMOND RED             
1 42783U 17036U   18079.21730905  .00000762  00000-0  37140-4 0  9997
2 42783  97.4120 140.3671 0013326  35.2620 324.9494 15.21250685 40985
PEGASUS                 
1 42784U 17036V   18079.20113549  .00001803  00000-0  83246-4 0  9991
2 42784  97.4121 140.3932 0013277  35.3224 324.8889 15.21425849 40986
DIAMOND GREEN           
1 42785U 17036W   18079.41372552  .00001097  00000-0  52117-4 0  9994
2 42785  97.4121 140.5708 0013228  35.2019 325.0088 15.21256725 41000
DIAMOND BLUE            
1 42786U 17036X   18079.41286586  .00001580  00000-0  73713-4 0  9998
2 42786  97.4122 140.5703 0013073  35.5817 324.6288 15.21255989 41002
NUDTSAT                 
1 42787U 17036Y   18079.61029194  .00002378  00000-0  10732-3 0  9998
2 42787  97.4122 140.9202 0012741  34.4411 325.7648 15.21899277 40892
SUCHAI                  
1 42788U 17036Z   18079.69900007  .00002094  00000-0  95567-4 0  9993
2 42788  97.4115 140.9473 0012827  34.1863 326.0196 15.21656446 41137
SKCUBE                  
1 42789U 17036AA  18079.23643850  .00002102  00000-0  95986-4 0  9999
2 42789  97.4115 140.4925 0012702  35.7555 324.4529 15.21635819 40987
VZLUSAT-1               
1 42790U 17036AB  18079.40379172  .00002580  00000-0  11612-3 0  9996
2 42790  97.4119 140.7250 0012336  35.6934 324.5125 15.21926735 41018
ROBUSTA-1B              
1 42792U 17036AD  18079.21323731  .00002002  00000-0  91178-4 0  9992
2 42792  97.4118 140.5149 0012323  36.9533 323.2549 15.21773911 40997
CICERO 6                
1 42793U 17036AE  18079.13488847  .00001235  00000-0  57583-4 0  9993
2 42793  97.4113 140.4574 0011525  38.5623 321.6434 15.21697852 41057
D-SAT                   
1 42794U 17036AF  18079.78356754  .00000484  00000-0  47956-4 0  9994
2 42794  97.6032 137.7308 0126387 215.8297 143.4396 14.90803128 40555
TOKI                    
1 42820U 98067MU  18079.39038680  .00025917  00000-0  27394-3 0  9990
2 42820  51.6354  91.4874 0002002 157.5086 202.5997 15.63999105 39960
MAZAALAI (NUMSAT-1)     
1 42822U 98067MW  18079.47436068  .00024039  00000-0  25651-3 0  9991
2 42822  51.6355  91.3013 0001829 165.2741 194.8307 15.63804704 39932
